[{"OBJECT_NAME":"COSMOS 1408 DEB","OBJECT_ID":"1982-092RU","EPOCH":"2026-04-25T20:23:19.239072","MEAN_MOTION":15.47239565,"ECCENTRICITY":0.001694,"INCLINATION":82.5603,"RA_OF_ASC_NODE":280.8758,"ARG_OF_PERICENTER":86.6227,"MEAN_ANOMALY":273.696,"EPHEMERIS_TYPE":0,"CLASSIFICATION_TYPE":"U","NORAD_CAT_ID":50032,"ELEMENT_SET_NO":999,"REV_AT_EPOCH":24676,"BSTAR":0.00011231,"MEAN_MOTION_DOT":5.788e-5,"MEAN_MOTION_DDOT":0},{"OBJECT_NAME":"COSMOS 1408 DEB","OBJECT_ID":"1982-092SW","EPOCH":"2026-04-25T04:27:18.043200","MEAN_MOTION":15.75645161,"ECCENTRICITY":0.00105663,"INCLINATION":82.6066,"RA_OF_ASC_NODE":288.4969,"ARG_OF_PERICENTER":316.2923,"MEAN_ANOMALY":43.7505,"EPHEMERIS_TYPE":0,"CLASSIFICATION_TYPE":"U","NORAD_CAT_ID":50058,"ELEMENT_SET_NO":999,"REV_AT_EPOCH":24897,"BSTAR":0.00035058879,"MEAN_MOTION_DOT":0.0005388,"MEAN_MOTION_DDOT":0},{"OBJECT_NAME":"COSMOS 1408 DEB","OBJECT_ID":"1982-092ADS","EPOCH":"2026-04-25T20:53:00.204864","MEAN_MOTION":15.5139875,"ECCENTRICITY":0.0092623,"INCLINATION":82.188,"RA_OF_ASC_NODE":74.175,"ARG_OF_PERICENTER":90.4116,"MEAN_ANOMALY":270.7749,"EPHEMERIS_TYPE":0,"CLASSIFICATION_TYPE":"U","NORAD_CAT_ID":50404,"ELEMENT_SET_NO":999,"REV_AT_EPOCH":23244,"BSTAR":0.0044151,"MEAN_MOTION_DOT":0.00321548,"MEAN_MOTION_DDOT":0},{"OBJECT_NAME":"COSMOS 1408 DEB","OBJECT_ID":"1982-092ALR","EPOCH":"2026-04-25T12:37:49.797120","MEAN_MOTION":15.65580913,"ECCENTRICITY":0.0022446,"INCLINATION":82.5644,"RA_OF_ASC_NODE":293.962,"ARG_OF_PERICENTER":17.3211,"MEAN_ANOMALY":342.8809,"EPHEMERIS_TYPE":0,"CLASSIFICATION_TYPE":"U","NORAD_CAT_ID":50621,"ELEMENT_SET_NO":999,"REV_AT_EPOCH":24337,"BSTAR":0.00031689,"MEAN_MOTION_DOT":0.00032322,"MEAN_MOTION_DDOT":0}]
