COSMOS 1408 DEB         
1 50032U 82092RU  26115.84952823  .00005788  00000+0  11231-3 0  9995
2 50032  82.5603 280.8758 0016940  86.6227 273.6960 15.47239565246760
COSMOS 1408 DEB         
1 50058U 82092SW  26115.18562550  .00053880  00000+0  35059-3 0  9994
2 50058  82.6066 288.4969 0010566 316.2923  43.7505 15.75645161248973
COSMOS 1408 DEB         
1 50404U 82092ADS 26115.87014126  .00321548  00000+0  44151-2 0  9997
2 50404  82.1880  74.1750 0092623  90.4116 270.7749 15.51398750232444
COSMOS 1408 DEB         
1 50621U 82092ALR 26115.52627080  .00032322  00000+0  31689-3 0  9991
2 50621  82.5644 293.9620 0022446  17.3211 342.8809 15.65580913243375
